start=new Date('2023-05-10T00:00:00.000Z').valueOf();
sats=[{"CLASSIFICATION_TYPE":"U","INCLINATION":"53.2154","ELEMENT_SET_NO":"999","PERIAPSIS":"539.044","TLE_LINE2":"2 53907  53.2154 292.2759 0000992  76.1234 283.9868 15.08845059 35361","OBJECT_TYPE":"PAYLOAD","FILE":"3904553","ECCENTRICITY":"0.00009920","OBJECT_ID":"2022-119X","EPHEMERIS_TYPE":"0","RCS_SIZE":"LARGE","MEAN_ELEMENT_THEORY":"SGP4","TIME_SYSTEM":"UTC","BSTAR":"0.00000488950000","CENTER_NAME":"EARTH","SEMIMAJOR_AXIS":"6917.865","MEAN_MOTION_DOT":"-0.00000210","MEAN_ANOMALY":"283.9868","RA_OF_ASC_NODE":"292.2759","COUNTRY_CODE":"US","NORAD_CAT_ID":"53907","MEAN_MOTION":"15.08845059","REF_FRAME":"TEME","APOAPSIS":"540.416","MEAN_MOTION_DDOT":"0.0000000000000","DECAY_DATE":null,"REV_AT_EPOCH":"3536","SITE":"AFETR","ARG_OF_PERICENTER":"76.1234","LAUNCH_DATE":"2022-09-24","PERIOD":"95.437","EPOCH":"2023-05-09T04:15:45.802944","TLE_LINE1":"1 53907U 22119X   23129.17761346 -.00000210  00000-0  48895-5 0  9994","GP_ID":"231509870","OBJECT_NAME":"STARLINK-5063"},{"TLE_LINE2":"2 53908  53.2151 281.1347 0001185  74.3463 285.7660 15.08847024 35553","PERIAPSIS":"538.904","ELEMENT_SET_NO":"999","INCLINATION":"53.2151","CLASSIFICATION_TYPE":"U","OBJECT_TYPE":"PAYLOAD","FILE":"3904553","OBJECT_ID":"2022-119Y","ECCENTRICITY":"0.00011850","EPHEMERIS_TYPE":"0","RCS_SIZE":"LARGE","CENTER_NAME":"EARTH","BSTAR":"0.00031437000000","TIME_SYSTEM":"UTC","MEAN_ELEMENT_THEORY":"SGP4","MEAN_MOTION_DOT":"0.00004720","SEMIMAJOR_AXIS":"6917.859","MEAN_ANOMALY":"285.7660","NORAD_CAT_ID":"53908","RA_OF_ASC_NODE":"281.1347","COUNTRY_CODE":"US","REF_FRAME":"TEME","MEAN_MOTION":"15.08847024","MEAN_MOTION_DDOT":"0.0000000000000","APOAPSIS":"540.544","ARG_OF_PERICENTER":"74.3463","SITE":"AFETR","REV_AT_EPOCH":"3555","DECAY_DATE":null,"LAUNCH_DATE":"2022-09-24","EPOCH":"2023-05-09T13:28:18.648480","PERIOD":"95.437","TLE_LINE1":"1 53908U 22119Y   23129.56132695  .00004720  00000-0  31437-3 0  9998","GP_ID":"231508855","OBJECT_NAME":"STARLINK-5057"},{"OBJECT_TYPE":"PAYLOAD","ELEMENT_SET_NO":"999","CLASSIFICATION_TYPE":"U","INCLINATION":"53.2166","TLE_LINE2":"2 53909  53.2166 281.2018 0001289  65.3762 294.7364 15.08849484 35556","PERIAPSIS":"538.825","EPHEMERIS_TYPE":"0","OBJECT_ID":"2022-119Z","FILE":"3904553","ECCENTRICITY":"0.00012890","BSTAR":"-0.00026536000000","TIME_SYSTEM":"UTC","MEAN_ELEMENT_THEORY":"SGP4","CENTER_NAME":"EARTH","RCS_SIZE":"LARGE","MEAN_ANOMALY":"294.7364","SEMIMAJOR_AXIS":"6917.851","MEAN_MOTION_DOT":"-0.00004510","REF_FRAME":"TEME","MEAN_MOTION":"15.08849484","RA_OF_ASC_NODE":"281.2018","COUNTRY_CODE":"US","NORAD_CAT_ID":"53909","SITE":"AFETR","DECAY_DATE":null,"REV_AT_EPOCH":"3555","ARG_OF_PERICENTER":"65.3762","APOAPSIS":"540.608","MEAN_MOTION_DDOT":"0.0000000000000","EPOCH":"2023-05-09T13:44:13.452288","PERIOD":"95.437","LAUNCH_DATE":"2022-09-24","OBJECT_NAME":"STARLINK-4796","TLE_LINE1":"1 53909U 22119Z   23129.57237792 -.00004510  00000-0 -26536-3 0  9997","GP_ID":"231509368"},{"MEAN_MOTION_DDOT":"0.0000000000000","APOAPSIS":"540.294","ARG_OF_PERICENTER":"106.6097","REV_AT_EPOCH":"3543","DECAY_DATE":null,"SITE":"AFETR","NORAD_CAT_ID":"53910","RA_OF_ASC_NODE":"284.6585","COUNTRY_CODE":"US","MEAN_MOTION":"15.08848351","REF_FRAME":"TEME","GP_ID":"231477856","TLE_LINE1":"1 53910U 22119AA  23128.75907019  .00002701  00000-0  18765-3 0  9997","OBJECT_NAME":"STARLINK-5056","LAUNCH_DATE":"2022-09-24","PERIOD":"95.437","EPOCH":"2023-05-08T18:13:03.664416","ECCENTRICITY":"0.00008300","FILE":"3904305","OBJECT_ID":"2022-119AA","EPHEMERIS_TYPE":"0","PERIAPSIS":"539.146","TLE_LINE2":"2 53910  53.2146 284.6585 0000830 106.6097 253.4987 15.08848351 35435","CLASSIFICATION_TYPE":"U","INCLINATION":"53.2146","ELEMENT_SET_NO":"999","OBJECT_TYPE":"PAYLOAD","MEAN_MOTION_DOT":"0.00002701","SEMIMAJOR_AXIS":"6917.855","MEAN_ANOMALY":"253.4987","RCS_SIZE":"LARGE","CENTER_NAME":"EARTH","MEAN_ELEMENT_THEORY":"SGP4","BSTAR":"0.00018765000000","TIME_SYSTEM":"UTC"},{"MEAN_ELEMENT_THEORY":"SGP4","TIME_SYSTEM":"UTC","BSTAR":"0.00043380000000","CENTER_NAME":"EARTH","RCS_SIZE":"LARGE","MEAN_ANOMALY":"294.9838","SEMIMAJOR_AXIS":"6917.842","MEAN_MOTION_DOT":"0.00006625","OBJECT_TYPE":"PAYLOAD","CLASSIFICATION_TYPE":"U","INCLINATION":"53.2161","ELEMENT_SET_NO":"999","PERIAPSIS":"539.107","TLE_LINE2":"2 53911  53.2161 281.1552 0000868  65.1244 294.9838 15.08852464 35551","EPHEMERIS_TYPE":"0","ECCENTRICITY":"0.00008680","FILE":"3904553","OBJECT_ID":"2022-119AB","PERIOD":"95.437","EPOCH":"2023-05-09T13:33:36.800064","LAUNCH_DATE":"2022-09-24","OBJECT_NAME":"STARLINK-5048","GP_ID":"231510371","TLE_LINE1":"1 53911U 22119AB  23129.56500926  .00006625  00000-0  43380-3 0  9994","MEAN_MOTION":"15.08852464","REF_FRAME":"TEME","RA_OF_ASC_NODE":"281.1552","COUNTRY_CODE":"US","NORAD_CAT_ID":"53911","DECAY_DATE":null,"REV_AT_EPOCH":"3555","SITE":"AFETR","ARG_OF_PERICENTER":"65.1244","MEAN_MOTION_DDOT":"0.0000000000000","APOAPSIS":"540.308"},{"REF_FRAME":"TEME","MEAN_MOTION":"15.08838794","NORAD_CAT_ID":"53912","RA_OF_ASC_NODE":"280.5511","COUNTRY_CODE":"US","ARG_OF_PERICENTER":"84.9993","SITE":"AFETR","REV_AT_EPOCH":"3556","DECAY_DATE":null,"MEAN_MOTION_DDOT":"0.0000000000000","APOAPSIS":"540.465","EPOCH":"2023-05-09T13:54:43.113888","PERIOD":"95.438","LAUNCH_DATE":"2022-09-24","OBJECT_NAME":"STARLINK-5059","GP_ID":"231509356","TLE_LINE1":"1 53912U 22119AC  23129.57966567  .00001616  00000-0  11962-3 0  9999","OBJECT_TYPE":"PAYLOAD","TLE_LINE2":"2 53912  53.2158 280.5511 0001035  84.9993 275.1117 15.08838794 35565","PERIAPSIS":"539.033","ELEMENT_SET_NO":"999","INCLINATION":"53.2158","CLASSIFICATION_TYPE":"U","EPHEMERIS_TYPE":"0","FILE":"3904553","ECCENTRICITY":"0.00010350","OBJECT_ID":"2022-119AC","CENTER_NAME":"EARTH","BSTAR":"0.00011962000000","TIME_SYSTEM":"UTC","MEAN_ELEMENT_THEORY":"SGP4","RCS_SIZE":"LARGE","MEAN_ANOMALY":"275.1117","MEAN_MOTION_DOT":"0.00001616","SEMIMAJOR_AXIS":"6917.884"},{"PERIAPSIS":"539.168","TLE_LINE2":"2 53913  53.2152 281.0427 0000817  64.6971 295.4105 15.08844081 35557","CLASSIFICATION_TYPE":"U","INCLINATION":"53.2152","ELEMENT_SET_NO":"999","OBJECT_TYPE":"PAYLOAD","ECCENTRICITY":"0.00008170","FILE":"3904553","OBJECT_ID":"2022-119AD","EPHEMERIS_TYPE":"0","RCS_SIZE":"LARGE","CENTER_NAME":"EARTH","MEAN_ELEMENT_THEORY":"SGP4","BSTAR":"0.00026214000000","TIME_SYSTEM":"UTC","MEAN_MOTION_DOT":"0.00003887","SEMIMAJOR_AXIS":"6917.868","MEAN_ANOMALY":"295.4105","NORAD_CAT_ID":"53913","COUNTRY_CODE":"US","RA_OF_ASC_NODE":"281.0427","MEAN_MOTION":"15.08844081","REF_FRAME":"TEME","APOAPSIS":"540.298","MEAN_MOTION_DDOT":"0.0000000000000","ARG_OF_PERICENTER":"64.6971","REV_AT_EPOCH":"3555","DECAY_DATE":null,"SITE":"AFETR","LAUNCH_DATE":"2022-09-24","PERIOD":"95.437","EPOCH":"2023-05-09T13:07:05.175552","GP_ID":"231508868","TLE_LINE1":"1 53913U 22119AD  23129.54658768  .00003887  00000-0  26214-3 0  9996","OBJECT_NAME":"STARLINK-5053"},{"MEAN_ELEMENT_THEORY":"SGP4","TIME_SYSTEM":"UTC","BSTAR":"0.00008402700000","CENTER_NAME":"EARTH","RCS_SIZE":"LARGE","MEAN_ANOMALY":"273.4477","SEMIMAJOR_AXIS":"6917.860","MEAN_MOTION_DOT":"0.00001050","OBJECT_TYPE":"PAYLOAD","INCLINATION":"53.2163","CLASSIFICATION_TYPE":"U","ELEMENT_SET_NO":"999","PERIAPSIS":"539.022","TLE_LINE2":"2 53914  53.2163 284.5881 0001017  86.6631 273.4477 15.08846615 35432","EPHEMERIS_TYPE":"0","OBJECT_ID":"2022-119AE","FILE":"3904305","ECCENTRICITY":"0.00010170","PERIOD":"95.437","EPOCH":"2023-05-08T17:57:08.707680","LAUNCH_DATE":"2022-09-24","OBJECT_NAME":"STARLINK-5040","TLE_LINE1":"1 53914U 22119AE  23128.74801745  .00001050  00000-0  84027-4 0  9990","GP_ID":"231477356","MEAN_MOTION":"15.08846615","REF_FRAME":"TEME","RA_OF_ASC_NODE":"284.5881","COUNTRY_CODE":"US","NORAD_CAT_ID":"53914","DECAY_DATE":null,"REV_AT_EPOCH":"3543","SITE":"AFETR","ARG_OF_PERICENTER":"86.6631","APOAPSIS":"540.429","MEAN_MOTION_DDOT":"0.0000000000000"},{"OBJECT_NAME":"STARLINK-5017","TLE_LINE1":"1 53915U 22119AF  23129.55764254  .00002717  00000-0  18870-3 0  9997","GP_ID":"231509871","PERIOD":"95.437","EPOCH":"2023-05-09T13:23:00.315456","LAUNCH_DATE":"2022-09-24","DECAY_DATE":null,"REV_AT_EPOCH":"3555","SITE":"AFETR","ARG_OF_PERICENTER":"64.1118","APOAPSIS":"540.423","MEAN_MOTION_DDOT":"0.0000000000000","MEAN_MOTION":"15.08841666","REF_FRAME":"TEME","COUNTRY_CODE":"US","RA_OF_ASC_NODE":"281.1120","NORAD_CAT_ID":"53915","MEAN_ANOMALY":"295.9976","SEMIMAJOR_AXIS":"6917.875","MEAN_MOTION_DOT":"0.00002717","MEAN_ELEMENT_THEORY":"SGP4","TIME_SYSTEM":"UTC","BSTAR":"0.00018870000000","CENTER_NAME":"EARTH","RCS_SIZE":"LARGE","EPHEMERIS_TYPE":"0","FILE":"3904553","ECCENTRICITY":"0.00009870","OBJECT_ID":"2022-119AF","OBJECT_TYPE":"PAYLOAD","INCLINATION":"53.2148","CLASSIFICATION_TYPE":"U","ELEMENT_SET_NO":"999","PERIAPSIS":"539.058","TLE_LINE2":"2 53915  53.2148 281.1120 0000987  64.1118 295.9976 15.08841666 35558"},{"DECAY_DATE":null,"REV_AT_EPOCH":"3585","SITE":"AFETR","ARG_OF_PERICENTER":"86.5414","APOAPSIS":"540.081","MEAN_MOTION_DDOT":"0.0000000000000","MEAN_MOTION":"15.08831985","REF_FRAME":"TEME","RA_OF_ASC_NODE":"260.5877","COUNTRY_CODE":"US","NORAD_CAT_ID":"53916","OBJECT_NAME":"STARLINK-5051","GP_ID":"231508856","TLE_LINE1":"1 53916U 22119AG  23129.57414794  .00000839  00000-0  70769-4 0  9990","PERIOD":"95.438","EPOCH":"2023-05-09T13:46:46.382016","LAUNCH_DATE":"2022-09-24","EPHEMERIS_TYPE":"0","FILE":"3904553","OBJECT_ID":"2022-119AG","ECCENTRICITY":"0.00004490","OBJECT_TYPE":"PAYLOAD","INCLINATION":"53.2166","CLASSIFICATION_TYPE":"U","ELEMENT_SET_NO":"999","PERIAPSIS":"539.459","TLE_LINE2":"2 53916  53.2166 260.5877 0000449  86.5414 273.5630 15.08831985 35854","MEAN_ANOMALY":"273.5630","SEMIMAJOR_AXIS":"6917.905","MEAN_MOTION_DOT":"0.00000839","MEAN_ELEMENT_THEORY":"SGP4","TIME_SYSTEM":"UTC","BSTAR":"0.00007076900000","CENTER_NAME":"EARTH","RCS_SIZE":"LARGE"}];
